GLOBALSTAR M023         
1 25621U 99004A   25053.42404559 -.00000071  00000+0  18117-3 0  9995
2 25621  52.0116  42.8968 0009802 233.2905 284.6402 12.62495658201235
GLOBALSTAR M040         
1 25622U 99004B   25053.43360262 -.00000033  00000+0  39810-3 0  9990
2 25622  51.9924  46.8506 0001021 132.6501  25.1506 12.62002670200760
GLOBALSTAR M036         
1 25623U 99004C   25053.63692090 -.00000121  00000+0 -55280-3 0  9998
2 25623  51.9959 182.2496 0011362 190.1395 183.0525 11.86591414165388
GLOBALSTAR M038         
1 25624U 99004D   25053.45000932 -.00000073  00000+0  18400-3 0  9995
2 25624  51.9985  41.9990 0001876 167.4576   0.4347 12.32520871188228
GLOBALSTAR M022         
1 25649U 99012A   25053.52106046 -.00000063  00000+0  28234-3 0  9997
2 25649  52.0013 242.6178 0001715 322.0263  53.2581 12.02496416162582
GLOBALSTAR M041         
1 25650U 99012B   25053.53540654 -.00000107  00000+0 -27798-3 0  9991
2 25650  52.0014 120.5348 0002197 101.0664 259.0420 11.96670559164554
GLOBALSTAR M046         
1 25651U 99012C   25053.70172581  .00000001  00000+0  99444-3 0  9999
2 25651  52.0039 196.4373 0002494  47.4185 325.4458 12.09407875170160
GLOBALSTAR M037         
1 25652U 99012D   25053.78776964 -.00000049  00000+0  30770-3 0  9993
2 25652  51.9996 172.4508 0001092 294.6477 198.4769 12.62437266196873
